{
  "type": "FeatureCollection",
  "features": [
    {
      "type": "Feature",
      "properties": {
        "name": "Canl\u0131 Yay\u0131n Kameras\u0131 7",
        "url": "https://www.youtube.com/embed/gFRtAAmiFbE?autoplay=1",
        "type": "yt"
      },
      "geometry": {
        "type": "Point",
        "coordinates": [
          35.0,
          37.0
        ]
      }
    },
    {
      "type": "Feature",
      "properties": {
        "name": "Canl\u0131 Yay\u0131n Kameras\u0131 6",
        "url": "https://www.youtube.com/embed/DEycz2Ufv98?autoplay=1",
        "type": "yt"
      },
      "geometry": {
        "type": "Point",
        "coordinates": [
          35.0,
          37.0
        ]
      }
    },
    {
      "type": "Feature",
      "properties": {
        "name": "Canl\u0131 Yay\u0131n Kameras\u0131 5",
        "url": "https://www.youtube.com/embed/zfSst64NFcE?autoplay=1",
        "type": "yt"
      },
      "geometry": {
        "type": "Point",
        "coordinates": [
          -73.9855,
          40.758
        ]
      }
    },
    {
      "type": "Feature",
      "properties": {
        "name": "Canl\u0131 Yay\u0131n Kameras\u0131 4",
        "url": "https://www.youtube.com/embed/16hHfZzf8-I?autoplay=1",
        "type": "yt"
      },
      "geometry": {
        "type": "Point",
        "coordinates": [
          35.3213,
          37.0
        ]
      }
    },
    {
      "type": "Feature",
      "properties": {
        "name": "Canl\u0131 Yay\u0131n Kameras\u0131 3",
        "url": "https://www.youtube.com/embed/EO_1LWqsCNE?autoplay=1",
        "type": "yt"
      },
      "geometry": {
        "type": "Point",
        "coordinates": [
          35.3213,
          37.0
        ]
      }
    },
    {
      "type": "Feature",
      "properties": {
        "name": "EarthCam Dublin Canl\u0131 Yay\u0131n",
        "url": "https://www.youtube.com/embed/3nyPER2kzqk?autoplay=1",
        "type": "yt"
      },
      "geometry": {
        "type": "Point",
        "coordinates": [
          -6.2603,
          53.3498
        ]
      }
    },
    {
      "type": "Feature",
      "properties": {
        "name": "Times Square Canl\u0131 Yay\u0131n 2",
        "url": "https://www.youtube.com/embed/lM3khCaiDos?autoplay=1",
        "type": "yt"
      },
      "geometry": {
        "type": "Point",
        "coordinates": [
          -73.9855,
          40.758
        ]
      }
    },
    {
      "type": "Feature",
      "properties": {
        "name": "YouTube Canl\u0131 Yay\u0131n Kameras\u0131",
        "url": "https://www.youtube.com/embed/whIxfJ1IPoU?autoplay=1",
        "type": "yt"
      },
      "geometry": {
        "type": "Point",
        "coordinates": [
          35.482,
          38.7225
        ]
      }
    }
  ]
}